GLOBALSTAR M068         
1 32266U 07048D   25312.46357079 -.00000064  00000+0  22337-3 0  9992
2 32266  51.9877 222.4502 0001821  80.5759  91.2590 12.62832225835781
GLOBALSTAR M079         
1 37188U 10054A   25312.07827737 -.00000106  00000+0 -11382-4 0  9998
2 37188  52.0048  61.7563 0000569 135.4035  34.9691 12.62268182694624
GLOBALSTAR M074         
1 37189U 10054B   25312.48042522 -.00000105  00000+0 -50212-5 0  9990
2 37189  52.0027  59.8317 0000632 106.0066 332.6392 12.62272841695282
GLOBALSTAR M076         
1 37190U 10054C   25312.50763391 -.00000113  00000+0 -53133-4 0  9992
2 37190  52.0036  59.9345 0000428 109.7767 331.2909 12.62267145695007
GLOBALSTAR M077         
1 37191U 10054D   25312.51413991 -.00000037  00000+0  55731-3 0  9991
2 37191  52.0119  22.9654 0001958  88.9061  42.3317 12.12460189695288
GLOBALSTAR M075         
1 37192U 10054E   25312.14447104 -.00000118  00000+0 -80331-4 0  9990
2 37192  51.9928 103.2161 0000901 100.7559  70.4979 12.62269490694027
GLOBALSTAR M073         
1 37193U 10054F   25312.53369285 -.00000081  00000+0  12806-3 0  9996
2 37193  52.0088  15.9638 0000265 139.1696   0.1746 12.62263839696065
GLOBALSTAR M083         
1 37739U 11033A   25312.36045780 -.00000093  00000+0  58915-4 0  9997
2 37739  51.9874 325.0230 0000144 100.0349 273.5295 12.62264201665068
GLOBALSTAR M088         
1 37740U 11033B   25312.09686490 -.00000066  00000+0  21187-3 0  9998
2 37740  52.0211 231.7180 0000854  68.8937 305.0568 12.62269648660571
GLOBALSTAR M091         
1 37741U 11033C   25312.46131916 -.00000071  00000+0  18289-3 0  9993
2 37741  51.9984 193.9010 0000949  87.8696  83.1453 12.62261505661400
GLOBALSTAR M085         
1 37742U 11033D   25312.49330818 -.00000097  00000+0  38144-4 0  9990
2 37742  52.0097 144.9020 0001040 105.1977 271.5097 12.62266735661928
GLOBALSTAR M081         
1 37743U 11033E   25312.31608483 -.00000088  00000+0  86123-4 0  9998
2 37743  51.9932 148.1289 0000841  94.7224  76.2866 12.62270302662047
GLOBALSTAR M089         
1 37744U 11033F   25312.19729495 -.00000119  00000+0 -82618-4 0  9993
2 37744  51.9910 102.6881 0000824  86.6430  85.2429 12.62272407662871
GLOBALSTAR M084         
1 38040U 11080A   25312.35414152 -.00000078  00000+0  14174-3 0  9998
2 38040  52.0022 329.5783 0000412  37.2045  66.9555 12.62264873640875
GLOBALSTAR M080         
1 38041U 11080B   25312.49714681 -.00000074  00000+0  16595-3 0  9999
2 38041  52.0076 330.7853 0000711 110.8839  52.9629 12.62270473641015
GLOBALSTAR M082         
1 38042U 11080C   25312.26204043 -.00000091  00000+0  71235-4 0  9993
2 38042  52.0079 286.9774 0000582  96.1680   8.9586 12.62264632641696
GLOBALSTAR M092         
1 38043U 11080D   25312.45310155 -.00000089  00000+0  83380-4 0  9998
2 38043  52.0108  16.7797 0000470 108.6043 264.4583 12.62267491640176
GLOBALSTAR M090         
1 38044U 11080E   25312.18911437 -.00000096  00000+0  43628-4 0  9998
2 38044  52.0128 281.0843 0000348  73.8203 298.8077 12.62263799641800
GLOBALSTAR M086         
1 38045U 11080F   25312.23393733 -.00000077  00000+0  14921-3 0  9990
2 38045  51.9900 281.2371 0000682 304.1981 159.7536 12.62279208641750
GLOBALSTAR M097         
1 39072U 13005A   25312.00127281 -.00000075  00000+0  15984-3 0  9996
2 39072  52.0037 196.6466 0000745  80.8228 279.2723 12.62267017588975
GLOBALSTAR M093         
1 39073U 13005B   25312.13363166 -.00000064  00000+0  22308-3 0  9991
2 39073  52.0095 189.5074 0000646  97.1470 262.9470 12.62270308588948
GLOBALSTAR M094         
1 39074U 13005C   25311.81660523 -.00000132  00000+0 -15990-3 0  9999
2 39074  51.9939 104.8052 0000811 117.5455 242.5494 12.62264880590518
GLOBALSTAR M096         
1 39075U 13005D   25312.30486286 -.00000098  00000+0  31721-4 0  9998
2 39075  52.0046 151.9478 0000927 102.6474 257.4497 12.62268750589492
GLOBALSTAR M078         
1 39076U 13005E   25311.96227036  .00000051  00000+0  86480-3 0  9995
2 39076  51.9873 237.3092 0001307 104.3999 255.7013 12.62272838588074
GLOBALSTAR M095         
1 39077U 13005F   25312.06749858 -.00000030  00000+0  40975-3 0  9996
2 39077  52.0073 234.2763 0000736 103.5905 256.5044 12.62265935587941
GLOBALSTAR M087         
1 52888U 22064A   25312.47628769 -.00000079  00000+0  13987-3 0  9994
2 52888  52.0022  14.3941 0000485 140.3769 219.7133 12.62260203163261
